[{"OBJECT_NAME":"IRIDIUM 169","OBJECT_ID":"2019-002E","EPOCH":"2026-03-09T22:14:17.748384","MEAN_MOTION":14.38612437,"ECCENTRICITY":0.00014131,"INCLINATION":86.4172,"RA_OF_ASC_NODE":66.6873,"ARG_OF_PERICENTER":82.9186,"MEAN_ANOMALY":277.2173,"EPHEMERIS_TYPE":0,"CLASSIFICATION_TYPE":"U","NORAD_CAT_ID":43926,"ELEMENT_SET_NO":999,"REV_AT_EPOCH":37595,"BSTAR":6.3248636e-5,"MEAN_MOTION_DOT":2.13e-6,"MEAN_MOTION_DDOT":0},{"OBJECT_NAME":"DMSP 5D-2 F13 DEB","OBJECT_ID":"1995-015DM","EPOCH":"2026-03-05T13:06:49.500864","MEAN_MOTION":14.38749448,"ECCENTRICITY":0.0013537,"INCLINATION":98.6782,"RA_OF_ASC_NODE":106.0128,"ARG_OF_PERICENTER":193.6912,"MEAN_ANOMALY":166.391,"EPHEMERIS_TYPE":0,"CLASSIFICATION_TYPE":"U","NORAD_CAT_ID":40525,"ELEMENT_SET_NO":999,"REV_AT_EPOCH":56724,"BSTAR":0.0020303,"MEAN_MOTION_DOT":6.201e-5,"MEAN_MOTION_DDOT":0}]
